[
    {
        "Altitude(m)": 604969.0889835422,
        "Argument of Periapsis(deg)": 0.0,
        "Eccentricity": 0.0,
        "Inclination(deg)": 60.0,
        "Latitude(deg)": -0.09253305736517531,
        "Longitude(deg)": 94.97752762725924,
        "Mean Anomaly(deg)": 0.0,
        "RAAN(deg)": 195.00000000000003,
        "Satellite Name": "Test1 858",
        "Satellite Number": 858,
        "Semi-Major Axis(m)": 6980739.136638005,
        "Time(s)": 0
    },
    {
        "Altitude(m)": 604900.0293720904,
        "Argument of Periapsis(deg)": 0.00010418945913296404,
        "Eccentricity": 0.0,
        "Inclination(deg)": 60.0,
        "Latitude(deg)": 0.44789290182583325,
        "Longitude(deg)": 95.24565053086857,
        "Mean Anomaly(deg)": 0.6201061454618275,
        "RAAN(deg)": 194.99957995086024,
        "Satellite Name": "Test1 858",
        "Satellite Number": 858,
        "Semi-Major Axis(m)": 6980739.136638005,
        "Time(s)": 10
    }
]